OBJECT_NAME,OBJECT_ID,EPOCH,MEAN_MOTION,ECCENTRICITY,INCLINATION,RA_OF_ASC_NODE,ARG_OF_PERICENTER,MEAN_ANOMALY,EPHEMERIS_TYPE,CLASSIFICATION_TYPE,NORAD_CAT_ID,ELEMENT_SET_NO,REV_AT_EPOCH,BSTAR,MEAN_MOTION_DOT,MEAN_MOTION_DDOT
FENGYUN 1C DEB,1999-025KZ,2026-03-21T01:44:47.213952,13.98075281,.01148136,99.3230,127.7794,105.2642,315.8836,0,U,29975,999,97811,.35922959E-3,.495E-5,0
FENGYUN 1C DEB,1999-025LA,2026-03-20T22:59:55.914720,13.98257080,.02675712,98.9251,79.6695,328.2789,93.6569,0,U,29976,999,97709,.22405155E-3,.388E-5,0
FENGYUN 1C DEB,1999-025LB,2026-03-20T21:24:58.943232,14.05489374,.0128182,98.3931,299.7463,338.4718,36.4089,0,U,29977,999,97739,.82250355E-3,.1398E-4,0
FENGYUN 1C DEB,1999-025LC,2026-03-21T02:44:12.599808,13.95944639,.0076803,99.0430,133.8795,141.7727,284.6971,0,U,29978,999,97689,-.51028673E-4,-.115E-5,0
FENGYUN 1C DEB,1999-025LD,2026-03-20T19:24:25.538688,14.26211967,.0105891,98.3625,103.6439,234.7016,303.6895,0,U,29979,999,99471,.31299E-3,.753E-5,0
FENGYUN 1C DEB,1999-025LE,2026-03-20T17:47:54.645216,14.06386573,.0086923,98.5632,248.5862,331.2984,39.8547,0,U,29980,999,98370,.18376819E-3,.272E-5,0
FENGYUN 1C DEB,1999-025LG,2026-03-21T04:18:59.510016,14.67758987,.01204958,99.4042,280.9160,348.6833,128.8772,0,U,29982,999,1727,.34600238E-3,.2129E-4,0
FENGYUN 1C DEB,1999-025LK,2026-03-20T23:36:27.756576,14.10345928,.00275686,98.7069,96.9559,293.1519,129.5667,0,U,29985,999,98733,.74282473E-4,.9E-6,0
FENGYUN 1C DEB,1999-025LL,2026-03-21T03:09:11.074752,14.30023531,.00237814,99.3866,160.4504,81.1383,341.0241,0,U,29986,999,98913,.11413319E-2,.2905E-4,0
FENGYUN 1C DEB,1999-025LM,2026-03-20T15:57:42.547392,14.15481876,.0080554,98.8952,336.3823,315.4803,73.2878,0,U,29987,999,97758,.17338E-2,.345E-4,0
FENGYUN 1C DEB,1999-025LN,2026-03-21T05:58:49.266048,14.52494796,.01172391,98.6932,192.5231,80.1153,338.6304,0,U,29988,999,99496,.17468258E-2,.7759E-4,0
FENGYUN 1C DEB,1999-025LP,2026-03-21T04:22:05.867904,14.15911723,.01222899,98.6819,61.3926,274.1470,99.9895,0,U,29989,999,99004,.14898764E-3,.271E-5,0
FENGYUN 1C DEB,1999-025LS,2026-03-20T22:32:42.493344,14.11657556,.00875709,98.7378,77.4690,249.1817,139.9837,0,U,29992,999,98773,.75393629E-4,.99E-6,0
FENGYUN 1C DEB,1999-025LT,2026-03-21T00:58:29.261280,14.08182972,.0039791,98.7783,119.1890,38.1080,322.2892,0,U,29993,999,98553,.13123836E-3,.183E-5,0
FENGYUN 1C DEB,1999-025LU,2026-03-21T02:13:49.578816,14.02718035,.0128822,98.8157,114.2941,299.7795,117.7743,0,U,29994,999,98105,.23382272E-3,.345E-5,0
FENGYUN 1C DEB,1999-025LW,2026-03-19T17:21:00.263808,14.10142047,.0133174,99.2956,124.3394,176.7771,311.1589,0,U,29996,999,97503,.14741067E-2,.2785E-4,0
FENGYUN 1C DEB,1999-025LX,2026-03-21T00:41:09.265344,14.01130438,.00812057,98.8910,92.8429,54.1019,4.8740,0,U,29997,999,97766,.52032527E-3,.761E-5,0
FENGYUN 1C DEB,1999-025LY,2026-03-21T03:47:23.345376,14.29054624,.00050934,99.2924,152.0230,45.0852,315.0740,0,U,29998,999,99280,.71620252E-3,.1765E-4,0
FENGYUN 1C DEB,1999-025LZ,2026-03-21T05:42:24.000192,14.20385424,.01875811,98.5892,66.6412,201.3085,174.7209,0,U,29999,999,99122,.19829489E-3,.462E-5,0
TITAN 3C TRANSTAGE DEB,1968-081J,2026-03-21T05:45:50.440032,1.00913989,.01303555,1.7492,40.0278,319.3313,164.3638,0,U,30000,999,7835,0,-.201E-5,0
FENGYUN 1C DEB,1999-025MA,2026-03-20T17:25:48.195264,14.40333535,.00400381,98.9512,164.1445,165.1617,356.9664,0,U,30001,999,98841,.21252794E-2,.6762E-4,0
FENGYUN 1C DEB,1999-025MC,2026-03-20T10:36:57.220416,13.85729476,.01420198,99.5906,61.4378,221.0778,264.2948,0,U,30003,999,96841,.22492309E-3,.231E-5,0
FENGYUN 1C DEB,1999-025MD,2026-03-21T06:38:28.414464,14.17398218,.0039079,99.2289,270.1032,65.5899,113.2341,0,U,30004,999,98702,.5686251E-3,.1113E-4,0
FENGYUN 1C DEB,1999-025ME,2026-03-19T15:10:36.476832,13.52534960,.03443341,99.3142,39.8137,208.2838,149.9220,0,U,30005,999,94256,.69741766E-3,.629E-5,0
FENGYUN 1C DEB,1999-025MG,2026-03-20T17:03:42.948000,14.26264303,.0064177,99.1760,350.6476,92.6640,301.3813,0,U,30007,999,98752,.13112791E-2,.3168E-4,0
FENGYUN 1C DEB,1999-025MH,2026-03-20T20:57:41.357376,14.69253880,.00362109,99.3774,55.3222,255.2448,166.3863,0,U,30008,999,500,.18598359E-2,.11028E-3,0
FENGYUN 1C DEB,1999-025MJ,2026-03-21T04:02:46.178592,14.05181010,.00653915,99.0021,139.4145,61.9059,298.8699,0,U,30009,999,97865,.74464402E-3,.1182E-4,0
FENGYUN 1C DEB,1999-025MK,2026-03-21T02:36:53.551296,14.25052449,.00721689,99.0701,280.5534,287.5287,192.3164,0,U,30010,999,99661,.87092937E-4,.162E-5,0
FENGYUN 1C DEB,1999-025MM,2026-03-21T03:26:06.241056,13.85834431,.01355109,99.4451,139.2847,243.9007,171.0557,0,U,30012,999,96911,.22494636E-3,.231E-5,0
FENGYUN 1C DEB,1999-025MN,2026-03-21T01:04:33.564288,13.87895102,.01285854,99.5720,106.9560,142.1122,274.0385,0,U,30013,999,97045,.20027828E-3,.208E-5,0
FENGYUN 1C DEB,1999-025MQ,2026-03-20T19:03:25.956288,14.31176224,.00374458,99.2290,93.6908,200.4667,340.1671,0,U,30015,999,99575,.44727076E-3,.1141E-4,0
FENGYUN 1C DEB,1999-025MR,2026-03-21T00:17:03.707808,14.81551089,.00448649,98.8969,107.5764,90.9059,326.7012,0,U,30016,999,908,.1495972E-2,.119E-3,0
FENGYUN 1C DEB,1999-025MS,2026-03-21T03:22:29.503200,14.61438814,.02157209,98.7366,135.4063,232.0680,126.0850,0,U,30017,999,1881,.11956445E-3,.754E-5,0
FENGYUN 1C DEB,1999-025MT,2026-03-21T04:47:00.927456,14.74221998,.01137848,98.7457,175.5799,246.3627,173.8989,0,U,30018,999,1887,.5713782E-3,.4123E-4,0
FENGYUN 1C DEB,1999-025MV,2026-03-21T05:51:58.264704,14.04663203,.01834216,98.8493,86.6190,154.4043,223.4591,0,U,30020,999,98041,.39798344E-3,.698E-5,0
FENGYUN 1C DEB,1999-025MW,2026-03-21T06:13:55.957152,14.04934891,.00730492,98.8452,74.2534,11.8767,3.9727,0,U,30021,999,98315,.19644609E-3,.28E-5,0
FENGYUN 1C DEB,1999-025MX,2026-03-21T03:55:23.210976,14.23168758,.00673088,99.0660,296.2466,347.9559,140.1347,0,U,30022,999,99592,.53365195E-4,.76E-6,0
FENGYUN 1C DEB,1999-025MY,2026-03-20T19:13:02.204544,14.12036842,.00470594,99.2938,281.9088,148.7631,224.7183,0,U,30023,999,98580,.35751962E-3,.614E-5,0
FENGYUN 1C DEB,1999-025ND,2026-03-20T23:22:02.497728,14.56046294,.0172444,98.1538,74.9126,283.8623,135.3924,0,U,30028,999,1151,.42458779E-3,.2231E-4,0
FENGYUN 1C DEB,1999-025NL,2026-03-21T00:36:40.057632,14.37034182,.01152675,99.2737,7.4100,135.1601,241.4942,0,U,30035,999,536,.52399983E-4,.115E-5,0
FENGYUN 1C DEB,1999-025NM,2026-03-20T00:40:45.934752,14.46626985,.01877515,98.2424,108.5908,271.2332,116.7389,0,U,30036,999,580,.32962165E-3,.1428E-4,0
FENGYUN 1C DEB,1999-025NN,2026-03-21T04:41:10.179744,14.34269520,.0174077,98.3976,58.0687,121.4968,259.9197,0,U,30037,999,199,.12517011E-3,.371E-5,0
FENGYUN 1C DEB,1999-025NP,2026-03-20T10:29:16.437120,14.39640378,.02559711,98.3797,69.9421,168.8416,345.4332,0,U,30038,999,297,.13189669E-3,.553E-5,0
FENGYUN 1C DEB,1999-025NR,2026-03-21T00:07:45.175872,14.38163632,.00324456,98.2290,97.2341,19.7145,39.6903,0,U,30040,999,99340,.12822938E-2,.3875E-4,0
FENGYUN 1C DEB,1999-025NS,2026-03-21T03:54:13.256352,14.13375965,.00335312,99.4677,197.3138,304.2990,175.8100,0,U,30041,999,98677,.35862512E-3,.627E-5,0
FENGYUN 1C DEB,1999-025NU,2026-03-21T04:24:45.370944,14.24072544,.0281341,98.6212,181.4121,204.2351,154.5380,0,U,30043,999,98746,.95826849E-3,.3273E-4,0
FENGYUN 1C DEB,1999-025NV,2026-03-21T01:03:04.777056,14.52701722,.00755006,98.2130,3.1186,225.5305,133.9701,0,U,30044,999,99465,.16253487E-2,.6876E-4,0
FENGYUN 1C DEB,1999-025NW,2026-03-20T14:50:34.027296,14.22552908,.0094831,99.1706,124.1293,192.8170,319.3818,0,U,30045,999,98079,.14495E-2,.3343E-4,0
FENGYUN 1C DEB,1999-025NY,2026-03-20T17:55:15.355200,13.94586084,.0125828,99.9298,249.0239,62.9122,313.7765,0,U,30047,999,97282,.67143E-3,.908E-5,0
FENGYUN 1C DEB,1999-025NZ,2026-03-20T13:15:37.787616,13.79956811,.01869119,98.6582,302.2255,341.1524,47.2929,0,U,30048,999,96475,.2202639E-3,.221E-5,0
FENGYUN 1C DEB,1999-025PB,2026-03-20T06:47:19.438368,13.85322749,.0170842,96.8270,18.0380,110.9784,42.6151,0,U,30050,999,96552,.79182E-3,.985E-5,0
FENGYUN 1C DEB,1999-025PD,2026-03-21T01:38:15.740736,13.73095032,.02884323,99.2891,107.9303,334.8908,82.3798,0,U,30052,999,95904,.41982413E-3,.479E-5,0
FENGYUN 1C DEB,1999-025PE,2026-03-20T17:18:27.926784,13.95009106,.03281859,98.5882,251.1725,66.6925,314.4667,0,U,30053,999,96352,.71021299E-3,.146E-4,0
FENGYUN 1C DEB,1999-025PF,2026-03-20T01:22:05.376288,13.69985329,.02764829,99.3582,113.7942,112.1038,279.9263,0,U,30054,999,95681,.45483885E-3,.482E-5,0
FENGYUN 1C DEB,1999-025PH,2026-03-20T09:51:25.509888,13.74487851,.02966172,98.3303,257.7242,306.4891,50.9267,0,U,30056,999,95317,.11863532E-2,.1506E-4,0
FENGYUN 1C DEB,1999-025PJ,2026-03-20T03:22:52.652352,13.57357254,.02900129,98.8714,143.5613,254.1126,131.8855,0,U,30057,999,94557,.12177444E-2,.1104E-4,0
FENGYUN 1C DEB,1999-025PK,2026-03-20T12:00:00.586656,13.48401085,.03139724,99.6522,85.5755,269.5601,246.2300,0,U,30058,999,94165,.67246051E-3,.519E-5,0
FENGYUN 1C DEB,1999-025PL,2026-03-21T05:44:25.724832,13.45549142,.03281098,98.8328,68.8527,52.7726,325.5280,0,U,30059,999,94122,.37211872E-3,.271E-5,0
FENGYUN 1C DEB,1999-025PM,2026-03-21T04:17:48.028704,13.44068371,.0342923,99.3142,304.7566,186.6418,305.2315,0,U,30060,999,93565,.11329535E-2,.894E-5,0
FENGYUN 1C DEB,1999-025PN,2026-03-21T07:28:35.620032,13.47172367,.03664092,101.8790,213.3248,26.8905,35.2393,0,U,30061,999,93426,.17923392E-2,.1585E-4,0
FENGYUN 1C DEB,1999-025PP,2026-03-21T00:23:18.732192,14.07260937,.00498004,98.7805,91.3977,130.1159,294.2700,0,U,30062,999,98290,.24559335E-3,.374E-5,0
FENGYUN 1C DEB,1999-025PQ,2026-03-21T04:41:33.930240,14.15651786,.00315591,98.5360,59.7643,210.8422,160.0907,0,U,30063,999,99058,.68513125E-4,.93E-6,0
FENGYUN 1C DEB,1999-025PR,2026-03-21T06:19:42.987936,14.14349504,.0065486,98.6604,93.3300,189.0658,187.1356,0,U,30064,999,98898,.13436158E-3,.22E-5,0
FENGYUN 1C DEB,1999-025PS,2026-03-21T04:37:15.358368,13.86959010,.01318216,98.6997,51.1232,122.2897,239.1110,0,U,30065,999,97036,.12353298E-3,.116E-5,0
